FENGYUN 1C DEB          
1 31007U 99025BCZ 26063.43520717  .00016203  00000+0  32266-2 0  9994
2 31007  98.0940  58.2362 0064912 140.0260 220.5746 14.60757747992862
FENGYUN 1C DEB          
1 31009U 99025BDB 26064.22317822  .00000711  00000+0  50175-3 0  9992
2 31009  98.9006  62.8323 0055622   8.5279 121.3830 14.00424460970157
FENGYUN 1C DEB          
1 31010U 99025BDC 26063.43115186  .00014838  00000+0  56562-2 0  9995
2 31010 101.7330 242.9332 0109589 142.6827 218.2020 14.27689993967947
FENGYUN 1C DEB          
1 31012U 99025BDE 26064.21870788  .00000636  00000+0  26563-3 0  9990
2 31012  98.9071 328.9645 0082630  12.9292 139.6056 14.27950570989246
FENGYUN 1C DEB          
1 31014U 99025BDG 26064.16495463  .00000436  00000+0  32400-3 0  9994
2 31014  98.8803  42.1013 0087855 326.8166  92.9484 13.98527283969887
FENGYUN 1C DEB          
1 31016U 99025BDJ 26063.78921755  .00001057  00000+0  39264-3 0  9996
2 31016  98.4334  82.1672 0113485  32.2376 144.9620 14.30634855986430
FENGYUN 1C DEB          
1 31017U 99025BDK 26061.42787809  .00000709  00000+0  40879-3 0  9993
2 31017  98.6898  49.6643 0113744 123.6262  29.7683 14.08940869974189
FENGYUN 1C DEB          
1 31018U 99025BDL 26064.20350018  .00003752  00000+0  18411-2 0  9998
2 31018  99.0179 157.1907 0057782 248.0259 111.4769 14.17507449972233
FENGYUN 1C DEB          
1 31019U 99025BDM 26062.95628439  .00001476  00000+0  40474-2 0  9999
2 31019  98.7130 238.2507 1111506 126.9789  21.0725 11.83206744561418
FENGYUN 1C DEB          
1 31021U 99025BDP 26054.11414102  .00005426  00000+0  43940-3 0  9992
2 31021  98.3475 172.0690 0264659  11.3731 349.3300 14.76631485745001
FENGYUN 1C DEB          
1 31022U 99025BDQ 26061.46102516  .00000526  00000+0  43929-3 0  9995
2 31022  99.5108 311.9860 0109076 269.1865  89.6794 13.90552415631165
FENGYUN 1C DEB          
1 31023U 99025BDR 26055.19175155  .00000295  00000+0  19737-3 0  9991
2 31023  98.8230  43.7893 0082836  15.9908 344.3847 14.06735466705348
FENGYUN 1C DEB          
1 31024U 99025BDS 26060.55464719  .00000640  00000+0  30843-3 0  9990
2 31024  99.0420 340.7282 0073333 259.9970  99.2924 14.21000190978234
FENGYUN 1C DEB          
1 31025U 99025BDT 26059.19216811  .00000870  00000+0  36365-3 0  9997
2 31025  98.5859  52.1896 0172689 147.7218 213.4668 14.20808746654657
FENGYUN 1C DEB          
1 31026U 99025BDU 26063.61590368  .00000268  00000+0  26226-3 0  9998
2 31026  98.7867 358.7863 0134089 321.8462 162.8367 13.83444716691583
FENGYUN 1C DEB          
1 31028U 99025BDW 26062.60680520  .00000474  00000+0  37789-3 0  9993
2 31028  98.7117 354.2330 0166215  72.6769 289.2497 13.89133885631265
