[{"OBJECT_NAME":"FENGYUN 1C DEB","OBJECT_ID":"1999-025BCZ","EPOCH":"2026-03-04T10:26:41.899488","MEAN_MOTION":14.60757747,"ECCENTRICITY":0.0064912,"INCLINATION":98.094,"RA_OF_ASC_NODE":58.2362,"ARG_OF_PERICENTER":140.026,"MEAN_ANOMALY":220.5746,"EPHEMERIS_TYPE":0,"CLASSIFICATION_TYPE":"U","NORAD_CAT_ID":31007,"ELEMENT_SET_NO":999,"REV_AT_EPOCH":99286,"BSTAR":0.0032265877,"MEAN_MOTION_DOT":0.00016203,"MEAN_MOTION_DDOT":0},{"OBJECT_NAME":"FENGYUN 1C DEB","OBJECT_ID":"1999-025BDB","EPOCH":"2026-03-05T05:21:22.598208","MEAN_MOTION":14.0042446,"ECCENTRICITY":0.00556224,"INCLINATION":98.9006,"RA_OF_ASC_NODE":62.8323,"ARG_OF_PERICENTER":8.5279,"MEAN_ANOMALY":121.383,"EPHEMERIS_TYPE":0,"CLASSIFICATION_TYPE":"U","NORAD_CAT_ID":31009,"ELEMENT_SET_NO":999,"REV_AT_EPOCH":97015,"BSTAR":0.00050175421,"MEAN_MOTION_DOT":7.11e-6,"MEAN_MOTION_DDOT":0},{"OBJECT_NAME":"FENGYUN 1C DEB","OBJECT_ID":"1999-025BDC","EPOCH":"2026-03-04T10:20:51.520704","MEAN_MOTION":14.27689993,"ECCENTRICITY":0.01095894,"INCLINATION":101.733,"RA_OF_ASC_NODE":242.9332,"ARG_OF_PERICENTER":142.6827,"MEAN_ANOMALY":218.202,"EPHEMERIS_TYPE":0,"CLASSIFICATION_TYPE":"U","NORAD_CAT_ID":31010,"ELEMENT_SET_NO":999,"REV_AT_EPOCH":96794,"BSTAR":0.0056561798,"MEAN_MOTION_DOT":0.00014838,"MEAN_MOTION_DDOT":0},{"OBJECT_NAME":"FENGYUN 1C DEB","OBJECT_ID":"1999-025BDE","EPOCH":"2026-03-05T05:14:56.360832","MEAN_MOTION":14.2795057,"ECCENTRICITY":0.00826303,"INCLINATION":98.9071,"RA_OF_ASC_NODE":328.9645,"ARG_OF_PERICENTER":12.9292,"MEAN_ANOMALY":139.6056,"EPHEMERIS_TYPE":0,"CLASSIFICATION_TYPE":"U","NORAD_CAT_ID":31012,"ELEMENT_SET_NO":999,"REV_AT_EPOCH":98924,"BSTAR":0.00026562589,"MEAN_MOTION_DOT":6.36e-6,"MEAN_MOTION_DDOT":0},{"OBJECT_NAME":"FENGYUN 1C DEB","OBJECT_ID":"1999-025BDG","EPOCH":"2026-03-05T03:57:32.080032","MEAN_MOTION":13.98527283,"ECCENTRICITY":0.00878559,"INCLINATION":98.8803,"RA_OF_ASC_NODE":42.1013,"ARG_OF_PERICENTER":326.8166,"MEAN_ANOMALY":92.9484,"EPHEMERIS_TYPE":0,"CLASSIFICATION_TYPE":"U","NORAD_CAT_ID":31014,"ELEMENT_SET_NO":999,"REV_AT_EPOCH":96988,"BSTAR":0.00032399623,"MEAN_MOTION_DOT":4.36e-6,"MEAN_MOTION_DDOT":0},{"OBJECT_NAME":"FENGYUN 1C DEB","OBJECT_ID":"1999-025BDJ","EPOCH":"2026-03-04T18:56:28.396320","MEAN_MOTION":14.30634855,"ECCENTRICITY":0.01134851,"INCLINATION":98.4334,"RA_OF_ASC_NODE":82.1672,"ARG_OF_PERICENTER":32.2376,"MEAN_ANOMALY":144.962,"EPHEMERIS_TYPE":0,"CLASSIFICATION_TYPE":"U","NORAD_CAT_ID":31016,"ELEMENT_SET_NO":999,"REV_AT_EPOCH":98643,"BSTAR":0.00039264041,"MEAN_MOTION_DOT":1.057e-5,"MEAN_MOTION_DDOT":0},{"OBJECT_NAME":"FENGYUN 1C DEB","OBJECT_ID":"1999-025BDK","EPOCH":"2026-03-02T10:16:08.666976","MEAN_MOTION":14.08940869,"ECCENTRICITY":0.01137446,"INCLINATION":98.6898,"RA_OF_ASC_NODE":49.6643,"ARG_OF_PERICENTER":123.6262,"MEAN_ANOMALY":29.7683,"EPHEMERIS_TYPE":0,"CLASSIFICATION_TYPE":"U","NORAD_CAT_ID":31017,"ELEMENT_SET_NO":999,"REV_AT_EPOCH":97418,"BSTAR":0.00040878794,"MEAN_MOTION_DOT":7.09e-6,"MEAN_MOTION_DDOT":0},{"OBJECT_NAME":"FENGYUN 1C DEB","OBJECT_ID":"1999-025BDL","EPOCH":"2026-03-05T04:53:02.415552","MEAN_MOTION":14.17507449,"ECCENTRICITY":0.00577826,"INCLINATION":99.0179,"RA_OF_ASC_NODE":157.1907,"ARG_OF_PERICENTER":248.0259,"MEAN_ANOMALY":111.4769,"EPHEMERIS_TYPE":0,"CLASSIFICATION_TYPE":"U","NORAD_CAT_ID":31018,"ELEMENT_SET_NO":999,"REV_AT_EPOCH":97223,"BSTAR":0.0018411129,"MEAN_MOTION_DOT":3.752e-5,"MEAN_MOTION_DDOT":0},{"OBJECT_NAME":"FENGYUN 1C DEB","OBJECT_ID":"1999-025BDM","EPOCH":"2026-03-03T22:57:02.971296","MEAN_MOTION":11.83206744,"ECCENTRICITY":0.1111506,"INCLINATION":98.713,"RA_OF_ASC_NODE":238.2507,"ARG_OF_PERICENTER":126.9789,"MEAN_ANOMALY":21.0725,"EPHEMERIS_TYPE":0,"CLASSIFICATION_TYPE":"U","NORAD_CAT_ID":31019,"ELEMENT_SET_NO":999,"REV_AT_EPOCH":56141,"BSTAR":0.0040474,"MEAN_MOTION_DOT":1.476e-5,"MEAN_MOTION_DDOT":0},{"OBJECT_NAME":"FENGYUN 1C DEB","OBJECT_ID":"1999-025BDP","EPOCH":"2026-02-23T02:44:21.784128","MEAN_MOTION":14.76631485,"ECCENTRICITY":0.02646595,"INCLINATION":98.3475,"RA_OF_ASC_NODE":172.069,"ARG_OF_PERICENTER":11.3731,"MEAN_ANOMALY":349.33,"EPHEMERIS_TYPE":0,"CLASSIFICATION_TYPE":"U","NORAD_CAT_ID":31021,"ELEMENT_SET_NO":999,"REV_AT_EPOCH":74500,"BSTAR":0.00043940497,"MEAN_MOTION_DOT":5.426e-5,"MEAN_MOTION_DDOT":0},{"OBJECT_NAME":"FENGYUN 1C DEB","OBJECT_ID":"1999-025BDQ","EPOCH":"2026-03-02T11:03:52.573824","MEAN_MOTION":13.90552415,"ECCENTRICITY":0.01090761,"INCLINATION":99.5108,"RA_OF_ASC_NODE":311.986,"ARG_OF_PERICENTER":269.1865,"MEAN_ANOMALY":89.6794,"EPHEMERIS_TYPE":0,"CLASSIFICATION_TYPE":"U","NORAD_CAT_ID":31022,"ELEMENT_SET_NO":999,"REV_AT_EPOCH":63116,"BSTAR":0.00043929256,"MEAN_MOTION_DOT":5.26e-6,"MEAN_MOTION_DDOT":0},{"OBJECT_NAME":"FENGYUN 1C DEB","OBJECT_ID":"1999-025BDR","EPOCH":"2026-02-24T04:36:07.333920","MEAN_MOTION":14.06735466,"ECCENTRICITY":0.00828366,"INCLINATION":98.823,"RA_OF_ASC_NODE":43.7893,"ARG_OF_PERICENTER":15.9908,"MEAN_ANOMALY":344.3847,"EPHEMERIS_TYPE":0,"CLASSIFICATION_TYPE":"U","NORAD_CAT_ID":31023,"ELEMENT_SET_NO":999,"REV_AT_EPOCH":70534,"BSTAR":0.00019737256,"MEAN_MOTION_DOT":2.95e-6,"MEAN_MOTION_DDOT":0},{"OBJECT_NAME":"FENGYUN 1C DEB","OBJECT_ID":"1999-025BDS","EPOCH":"2026-03-01T13:18:41.517216","MEAN_MOTION":14.2100019,"ECCENTRICITY":0.00733335,"INCLINATION":99.042,"RA_OF_ASC_NODE":340.7282,"ARG_OF_PERICENTER":259.997,"MEAN_ANOMALY":99.2924,"EPHEMERIS_TYPE":0,"CLASSIFICATION_TYPE":"U","NORAD_CAT_ID":31024,"ELEMENT_SET_NO":999,"REV_AT_EPOCH":97823,"BSTAR":0.00030842633,"MEAN_MOTION_DOT":6.4e-6,"MEAN_MOTION_DDOT":0},{"OBJECT_NAME":"FENGYUN 1C DEB","OBJECT_ID":"1999-025BDT","EPOCH":"2026-02-28T04:36:43.324704","MEAN_MOTION":14.20808746,"ECCENTRICITY":0.01726892,"INCLINATION":98.5859,"RA_OF_ASC_NODE":52.1896,"ARG_OF_PERICENTER":147.7218,"MEAN_ANOMALY":213.4668,"EPHEMERIS_TYPE":0,"CLASSIFICATION_TYPE":"U","NORAD_CAT_ID":31025,"ELEMENT_SET_NO":999,"REV_AT_EPOCH":65465,"BSTAR":0.00036364954,"MEAN_MOTION_DOT":8.7e-6,"MEAN_MOTION_DDOT":0},{"OBJECT_NAME":"FENGYUN 1C DEB","OBJECT_ID":"1999-025BDU","EPOCH":"2026-03-04T14:46:54.077952","MEAN_MOTION":13.83444716,"ECCENTRICITY":0.0134089,"INCLINATION":98.7867,"RA_OF_ASC_NODE":358.7863,"ARG_OF_PERICENTER":321.8462,"MEAN_ANOMALY":162.8367,"EPHEMERIS_TYPE":0,"CLASSIFICATION_TYPE":"U","NORAD_CAT_ID":31026,"ELEMENT_SET_NO":999,"REV_AT_EPOCH":69158,"BSTAR":0.00026226,"MEAN_MOTION_DOT":2.68e-6,"MEAN_MOTION_DDOT":0},{"OBJECT_NAME":"FENGYUN 1C DEB","OBJECT_ID":"1999-025BDW","EPOCH":"2026-03-03T14:33:47.969280","MEAN_MOTION":13.89133885,"ECCENTRICITY":0.0166215,"INCLINATION":98.7117,"RA_OF_ASC_NODE":354.233,"ARG_OF_PERICENTER":72.6769,"MEAN_ANOMALY":289.2497,"EPHEMERIS_TYPE":0,"CLASSIFICATION_TYPE":"U","NORAD_CAT_ID":31028,"ELEMENT_SET_NO":999,"REV_AT_EPOCH":63126,"BSTAR":0.00037789,"MEAN_MOTION_DOT":4.74e-6,"MEAN_MOTION_DDOT":0}]
